OBJECT_NAME,OBJECT_ID,EPOCH,MEAN_MOTION,ECCENTRICITY,INCLINATION,RA_OF_ASC_NODE,ARG_OF_PERICENTER,MEAN_ANOMALY,EPHEMERIS_TYPE,CLASSIFICATION_TYPE,NORAD_CAT_ID,ELEMENT_SET_NO,REV_AT_EPOCH,BSTAR,MEAN_MOTION_DOT,MEAN_MOTION_DDOT
CUBEBUG-2 (LO-74),2013-066AA,2026-06-07T18:02:43.454112,14.93689124,.005931,97.8907,107.6906,59.6684,301.0383,0,U,39440,999,67558,.49259E-3,.5333E-4,0
FUNCUBE-1 (AO-73),2013-066AE,2026-06-08T04:09:47.030400,15.09382626,.0034724,97.8274,130.4319,232.3552,127.4524,0,U,39444,999,67830,.33894E-3,.5422E-4,0
UWE-3,2013-066AG,2026-06-08T03:00:14.958432,14.96953360,.0048868,97.8687,115.1387,351.6421,8.3981,0,U,39446,999,67622,.39518E-3,.4591E-4,0
UNISAT-6,2014-033C,2026-06-07T22:07:42.273120,14.88198016,.004645,97.7873,311.7985,98.9247,261.7232,0,U,40012,999,64478,.37971E-3,.3516E-4,0
DUCHIFAT-1,2014-033M,2026-06-08T03:02:21.765984,15.62815586,.0004621,98.0465,217.0282,132.1747,227.9902,0,U,40021,999,65433,.1178E-2,.107166E-2,0
QB50P1,2014-033R,2026-06-07T23:43:43.953024,15.18121687,.0007153,98.0970,169.4906,252.8100,107.2349,0,U,40025,999,65163,.45488E-3,.9215E-4,0
LILACSAT-2,2015-049K,2026-06-08T04:15:06.460704,15.51148907,.0005277,97.4659,195.6778,288.9416,71.1263,0,U,40908,999,59435,.31311E-3,.18201E-3,0
FOX-1A (AO-85),2015-058D,2026-06-07T18:15:28.569312,14.90923768,.0129935,64.7762,308.2774,60.2802,301.1167,0,U,40967,999,11216,.28859E-3,.3179E-4,0
CAS-2T & KS-1Q,2016-066G,2026-06-08T04:00:54.013248,14.44664571,.0342445,98.3822,235.0065,156.7734,204.9360,0,U,41847,999,50349,.25447E-3,.1763E-4,0
RADFXSAT (FOX-1B),2017-073E,2026-06-07T21:08:22.858368,15.12564477,.0150955,97.4721,26.2863,1.5297,358.6365,0,U,43017,999,46398,.41497E-3,.9506E-4,0
DIWATA-2B,2018-084H,2026-06-08T04:00:20.122848,15.00408860,.0011994,98.1169,354.9843,200.0320,160.0433,0,U,43678,999,41486,.19081E-3,.2336E-4,0
ES'HAIL 2,2018-090A,2026-06-07T21:37:30.326880,1.00273859,.0001905,0.0153,51.7811,61.1895,133.5104,0,U,43700,999,2758,0,.159E-5,0
FOX-1CLIFF (AO-95),2018-099N,2026-06-08T03:55:16.914144,15.26519996,.0008916,97.4386,219.4444,30.0616,330.1133,0,U,43770,999,41184,.36286E-3,.9417E-4,0
ITASAT,2018-099AE,2026-06-08T03:05:10.088736,15.18945561,.0013095,97.4031,210.8218,31.6283,328.5736,0,U,43786,999,41153,.35522E-3,.7372E-4,0
JY1SAT (JO-97),2018-099AX,2026-06-08T03:44:58.799040,15.33366005,.0004245,97.4132,221.9612,308.5712,51.5149,0,U,43803,999,41224,.42915E-3,.13771E-3,0
UWE-4,2018-111E,2026-06-07T18:20:33.843840,15.45534783,.0007278,97.5856,86.7246,18.3165,341.8344,0,U,43880,999,40932,.69481E-3,.33394E-3,0
TIANYAN 01,2019-093C,2026-06-08T03:49:35.794848,14.86506413,.0014905,97.7527,231.6113,113.7399,246.5382,0,U,44881,999,35007,.16408E-3,.1401E-4,0
RS-44 & BREEZE-KM R/B,2019-096E,2026-06-08T00:20:36.442752,12.79748641,.0217756,82.5217,345.8017,165.5613,195.1847,0,U,44909,999,30117,.26984E-4,.19E-6,0
SALSAT,2020-068K,2026-06-07T23:42:24.407136,15.29667638,.0008912,97.8853,161.4934,345.1768,14.9208,0,U,46495,999,31395,.28698E-3,.8175E-4,0
XW-3 (CAS-9),2021-131B,2026-06-08T04:03:15.524352,14.41349632,.0005233,98.4973,251.6076,117.3027,242.8695,0,U,50466,999,23381,.19144E-3,.576E-5,0
GREENCUBE (IO-117),2022-080E,2026-06-01T11:09:37.753056,6.42583280,.00088692,70.1435,303.7143,293.3663,66.6064,0,U,53109,999,9105,0,-.3E-7,0
UMKA 1 (RS40S),2023-091G,2026-06-08T03:29:17.623104,15.20713083,.0013798,97.5052,217.8778,145.9933,214.2189,0,U,57172,999,16263,.24568E-3,.5345E-4,0
CUBESX-HSE 3 (RS42S),2023-091N,2026-06-08T03:43:05.786112,15.30985083,.0012134,97.5093,224.6294,122.4970,237.7445,0,U,57178,999,16304,.369E-3,.10996E-3,0
MONITOR-3 (RS58S),2023-091Q,2026-06-08T03:49:51.583584,15.27658283,.0013031,97.5085,222.5406,128.6737,231.5670,0,U,57180,999,16291,.31813E-3,.8547E-4,0
MONITOR-4 (RS57S),2023-091S,2026-06-08T03:20:27.220416,15.27752455,.0012983,97.5078,222.4907,129.0943,231.1452,0,U,57182,999,16291,.32499E-3,.8758E-4,0
MONITOR-2 (RS39S),2023-091U,2026-06-08T03:43:39.006048,15.18826190,.0012364,97.5075,217.4971,138.7938,221.4232,0,U,57184,999,16258,.2184E-3,.4486E-4,0
SVYATOBOR 1 (RS60S),2023-091X,2026-06-08T03:28:12.601920,15.26459931,.0010835,97.5090,222.9125,121.4888,238.7410,0,U,57187,999,16293,.30664E-3,.7934E-4,0
VIZARD-METEO (RS38S),2023-091Z,2026-06-08T03:45:44.254944,15.35736862,.0008707,97.5091,228.4630,104.5087,255.7123,0,U,57189,999,16330,.42378E-3,.14676E-3,0
POLYTECH-UNIVERSE 3 (RS46S),2023-091AB,2026-06-08T02:49:40.719360,15.19027238,.0016272,97.5049,216.9644,156.0512,204.1482,0,U,57191,999,16257,.28976E-3,.602E-4,0
UTMN 2 (RS27S),2023-091AP,2026-06-08T02:41:29.366016,15.31829938,.0009485,97.5088,226.2089,110.6914,249.5345,0,U,57203,999,16315,.45068E-3,.138E-3,0
